0 EKRAN 19
1 19683U 88108A   13281.62020578 -.00000159  00000-0  10000-3 0  6927
2 19683 015.5989 016.9950 0032146 095.2502 265.1195 00.96652757 88782
0 EKRAN 19
1 19683U 88108A   13284.72401126 -.00000096  00000-0  10000-3 0  6934
2 19683 015.6019 016.9631 0032302 095.3642 265.0032 00.96651401 88811
0 EKRAN 19
1 19683U 88108A   13286.79322941 -.00000078  00000-0  10000-3 0  6941
2 19683 015.6040 016.9414 0032442 095.8569 264.5063 00.96651120 88830
0 EKRAN 19
1 19683U 88108A   13291.96620726 -.00000163  00000-0  10000-3 0  6954
2 19683 015.6087 016.8881 0032445 096.2589 264.0866 00.96652743 88881
0 EKRAN 19
1 19683U 88108A   13294.03540954 -.00000166  00000-0  10000-3 0  6963
2 19683 015.6108 016.8666 0032486 096.4491 263.9024 00.96652755 88905
